{
  "type": "FeatureCollection",
  "name": "example_features",
  "crs": { "type": "name", "properties": { "name": "urn:ogc:def:crs:EPSG::4326" } },
  "features": [
    { "type": "Feature", "properties": { "elevation": 1200, "slope": 15, "aspect": 90, "geology_code_1": 1, "geology_code_2": 0, "geology_code_3": 0, "geology_code_4": 0, "geology_code_5": 0, "geology_code_6": 0, "geology_code_7": 0, "geology_code_8": 0, "geology_code_9": 0, "geology_code_10": 0, "geology_code_11": 0, "geology_code_12": 0, "geology_code_13": 0, "geology_code_14": 0, "geology_code_15": 0, "geology_code_16": 0, "geology_code_17": 0, "geology_code_18": 0, "geology_code_19": 0, "geology_code_20": 0, "geology_code_21": 0, "geology_code_22": 0, "geology_code_23": 0, "geology_code_24": 0, "geology_code_25": 0, "geology_code_26": 0, "geology_code_27": 0, "geology_code_28": 0, "geology_code_unknown": 0 }, "geometry": { "type": "Point", "coordinates": [ 17.5, -22.5 ] } },
    { "type": "Feature", "properties": { "elevation": 1150, "slope": 20, "aspect": 135, "geology_code_1": 0, "geology_code_2": 1, "geology_code_3": 0, "geology_code_4": 0, "geology_code_5": 0, "geology_code_6": 0, "geology_code_7": 0, "geology_code_8": 0, "geology_code_9": 0, "geology_code_10": 0, "geology_code_11": 0, "geology_code_12": 0, "geology_code_13": 0, "geology_code_14": 0, "geology_code_15": 0, "geology_code_16": 0, "geology_code_17": 0, "geology_code_18": 0, "geology_code_19": 0, "geology_code_20": 0, "geology_code_21": 0, "geology_code_22": 0, "geology_code_23": 0, "geology_code_24": 0, "geology_code_25": 0, "geology_code_26": 0, "geology_code_27": 0, "geology_code_28": 0, "geology_code_unknown": 0 }, "geometry": { "type": "Point", "coordinates": [ 17.6, -22.6 ] } },
    { "type": "Feature", "properties": { "elevation": 1300, "slope": 10, "aspect": 45, "geology_code_1": 0, "geology_code_2": 0, "geology_code_3": 1, "geology_code_4": 0, "geology_code_5": 0, "geology_code_6": 0, "geology_code_7": 0, "geology_code_8": 0, "geology_code_9": 0, "geology_code_10": 0, "geology_code_11": 0, "geology_code_12": 0, "geology_code_13": 0, "geology_code_14": 0, "geology_code_15": 0, "geology_code_16": 0, "geology_code_17": 0, "geology_code_18": 0, "geology_code_19": 0, "geology_code_20": 0, "geology_code_21": 0, "geology_code_22": 0, "geology_code_23": 0, "geology_code_24": 0, "geology_code_25": 0, "geology_code_26": 0, "geology_code_27": 0, "geology_code_28": 0, "geology_code_unknown": 0 }, "geometry": { "type": "Point", "coordinates": [ 17.7, -22.7 ] } },
    { "type": "Feature", "properties": { "elevation": 1050, "slope": 25, "aspect": 180, "geology_code_1": 0, "geology_code_2": 0, "geology_code_3": 0, "geology_code_4": 1, "geology_code_5": 0, "geology_code_6": 0, "geology_code_7": 0, "geology_code_8": 0, "geology_code_9": 0, "geology_code_10": 0, "geology_code_11": 0, "geology_code_12": 0, "geology_code_13": 0, "geology_code_14": 0, "geology_code_15": 0, "geology_code_16": 0, "geology_code_17": 0, "geology_code_18": 0, "geology_code_19": 0, "geology_code_20": 0, "geology_code_21": 0, "geology_code_22": 0, "geology_code_23": 0, "geology_code_24": 0, "geology_code_25": 0, "geology_code_26": 0, "geology_code_27": 0, "geology_code_28": 0, "geology_code_unknown": 0 }, "geometry": { "type": "Point", "coordinates": [ 17.8, -22.8 ] } },
    { "type": "Feature", "properties": { "elevation": 1400, "slope": 8, "aspect": 270, "geology_code_1": 0, "geology_code_2": 0, "geology_code_3": 0, "geology_code_4": 0, "geology_code_5": 1, "geology_code_6": 0, "geology_code_7": 0, "geology_code_8": 0, "geology_code_9": 0, "geology_code_10": 0, "geology_code_11": 0, "geology_code_12": 0, "geology_code_13": 0, "geology_code_14": 0, "geology_code_15": 0, "geology_code_16": 0, "geology_code_17": 0, "geology_code_18": 0, "geology_code_19": 0, "geology_code_20": 0, "geology_code_21": 0, "geology_code_22": 0, "geology_code_23": 0, "geology_code_24": 0, "geology_code_25": 0, "geology_code_26": 0, "geology_code_27": 0, "geology_code_28": 0, "geology_code_unknown": 0 }, "geometry": { "type": "Point", "coordinates": [ 17.9, -22.9 ] } },
    { "type": "Feature", "properties": { "elevation": 1250, "slope": 18, "aspect": 315, "geology_code_1": 0, "geology_code_2": 0, "geology_code_3": 0, "geology_code_4": 0, "geology_code_5": 0, "geology_code_6": 1, "geology_code_7": 0, "geology_code_8": 0, "geology_code_9": 0, "geology_code_10": 0, "geology_code_11": 0, "geology_code_12": 0, "geology_code_13": 0, "geology_code_14": 0, "geology_code_15": 0, "geology_code_16": 0, "geology_code_17": 0, "geology_code_18": 0, "geology_code_19": 0, "geology_code_20": 0, "geology_code_21": 0, "geology_code_22": 0, "geology_code_23": 0, "geology_code_24": 0, "geology_code_25": 0, "geology_code_26": 0, "geology_code_27": 0, "geology_code_28": 0, "geology_code_unknown": 0 }, "geometry": { "type": "Point", "coordinates": [ 18.0, -23.0 ] } },
    { "type": "Feature", "properties": { "elevation": 1100, "slope": 22, "aspect": 0, "geology_code_1": 0, "geology_code_2": 0, "geology_code_3": 0, "geology_code_4": 0, "geology_code_5": 0, "geology_code_6": 0, "geology_code_7": 1, "geology_code_8": 0, "geology_code_9": 0, "geology_code_10": 0, "geology_code_11": 0, "geology_code_12": 0, "geology_code_13": 0, "geology_code_14": 0, "geology_code_15": 0, "geology_code_16": 0, "geology_code_17": 0, "geology_code_18": 0, "geology_code_19": 0, "geology_code_20": 0, "geology_code_21": 0, "geology_code_22": 0, "geology_code_23": 0, "geology_code_24": 0, "geology_code_25": 0, "geology_code_26": 0, "geology_code_27": 0, "geology_code_28": 0, "geology_code_unknown": 0 }, "geometry": { "type": "Point", "coordinates": [ 18.1, -23.1 ] } },
    { "type": "Feature", "properties": { "elevation": 1350, "slope": 12, "aspect": 60, "geology_code_1": 0, "geology_code_2": 0, "geology_code_3": 0, "geology_code_4": 0, "geology_code_5": 0, "geology_code_6": 0, "geology_code_7": 0, "geology_code_8": 1, "geology_code_9": 0, "geology_code_10": 0, "geology_code_11": 0, "geology_code_12": 0, "geology_code_13": 0, "geology_code_14": 0, "geology_code_15": 0, "geology_code_16": 0, "geology_code_17": 0, "geology_code_18": 0, "geology_code_19": 0, "geology_code_20": 0, "geology_code_21": 0, "geology_code_22": 0, "geology_code_23": 0, "geology_code_24": 0, "geology_code_25": 0, "geology_code_26": 0, "geology_code_27": 0, "geology_code_28": 0, "geology_code_unknown": 0 }, "geometry": { "type": "Point", "coordinates": [ 18.2, -23.2 ] } },
    { "type": "Feature", "properties": { "elevation": 1000, "slope": 28, "aspect": 150, "geology_code_1": 0, "geology_code_2": 0, "geology_code_3": 0, "geology_code_4": 0, "geology_code_5": 0, "geology_code_6": 0, "geology_code_7": 0, "geology_code_8": 0, "geology_code_9": 1, "geology_code_10": 0, "geology_code_11": 0, "geology_code_12": 0, "geology_code_13": 0, "geology_code_14": 0, "geology_code_15": 0, "geology_code_16": 0, "geology_code_17": 0, "geology_code_18": 0, "geology_code_19": 0, "geology_code_20": 0, "geology_code_21": 0, "geology_code_22": 0, "geology_code_23": 0, "geology_code_24": 0, "geology_code_25": 0, "geology_code_26": 0, "geology_code_27": 0, "geology_code_28": 0, "geology_code_unknown": 0 }, "geometry": { "type": "Point", "coordinates": [ 18.3, -23.3 ] } },
    { "type": "Feature", "properties": { "elevation": 1450, "slope": 6, "aspect": 210, "geology_code_1": 0, "geology_code_2": 0, "geology_code_3": 0, "geology_code_4": 0, "geology_code_5": 0, "geology_code_6": 0, "geology_code_7": 0, "geology_code_8": 0, "geology_code_9": 0, "geology_code_10": 1, "geology_code_11": 0, "geology_code_12": 0, "geology_code_13": 0, "geology_code_14": 0, "geology_code_15": 0, "geology_code_16": 0, "geology_code_17": 0, "geology_code_18": 0, "geology_code_19": 0, "geology_code_20": 0, "geology_code_21": 0, "geology_code_22": 0, "geology_code_23": 0, "geology_code_24": 0, "geology_code_25": 0, "geology_code_26": 0, "geology_code_27": 0, "geology_code_28": 0, "geology_code_unknown": 0 }, "geometry": { "type": "Point", "coordinates": [ 18.4, -23.4 ] } }
  ]
}
