{
  "type": "FeatureCollection",
  "name": "example_deposits",
  "crs": { "type": "name", "properties": { "name": "urn:ogc:def:crs:EPSG::4326" } },
  "features": [
    { "type": "Feature", "properties": { "elevation": 1220, "slope": 16, "aspect": 95, "geology_code_1": 1, "geology_code_2": 0, "geology_code_3": 0, "geology_code_4": 0, "geology_code_5": 0, "geology_code_6": 0, "geology_code_7": 0, "geology_code_8": 0, "geology_code_9": 0, "geology_code_10": 0, "geology_code_11": 0, "geology_code_12": 0, "geology_code_13": 0, "geology_code_14": 0, "geology_code_15": 0, "geology_code_16": 0, "geology_code_17": 0, "geology_code_18": 0, "geology_code_19": 0, "geology_code_20": 0, "geology_code_21": 0, "geology_code_22": 0, "geology_code_23": 0, "geology_code_24": 0, "geology_code_25": 0, "geology_code_26": 0, "geology_code_27": 0, "geology_code_28": 0, "geology_code_unknown": 0, "label": 1 }, "geometry": { "type": "Point", "coordinates": [ 17.55, -22.55 ] } },
    { "type": "Feature", "properties": { "elevation": 1180, "slope": 21, "aspect": 140, "geology_code_1": 0, "geology_code_2": 1, "geology_code_3": 0, "geology_code_4": 0, "geology_code_5": 0, "geology_code_6": 0, "geology_code_7": 0, "geology_code_8": 0, "geology_code_9": 0, "geology_code_10": 0, "geology_code_11": 0, "geology_code_12": 0, "geology_code_13": 0, "geology_code_14": 0, "geology_code_15": 0, "geology_code_16": 0, "geology_code_17": 0, "geology_code_18": 0, "geology_code_19": 0, "geology_code_20": 0, "geology_code_21": 0, "geology_code_22": 0, "geology_code_23": 0, "geology_code_24": 0, "geology_code_25": 0, "geology_code_26": 0, "geology_code_27": 0, "geology_code_28": 0, "geology_code_unknown": 0, "label": 1 }, "geometry": { "type": "Point", "coordinates": [ 17.65, -22.65 ] } },
    { "type": "Feature", "properties": { "elevation": 1320, "slope": 11, "aspect": 50, "geology_code_1": 0, "geology_code_2": 0, "geology_code_3": 1, "geology_code_4": 0, "geology_code_5": 0, "geology_code_6": 0, "geology_code_7": 0, "geology_code_8": 0, "geology_code_9": 0, "geology_code_10": 0, "geology_code_11": 0, "geology_code_12": 0, "geology_code_13": 0, "geology_code_14": 0, "geology_code_15": 0, "geology_code_16": 0, "geology_code_17": 0, "geology_code_18": 0, "geology_code_19": 0, "geology_code_20": 0, "geology_code_21": 0, "geology_code_22": 0, "geology_code_23": 0, "geology_code_24": 0, "geology_code_25": 0, "geology_code_26": 0, "geology_code_27": 0, "geology_code_28": 0, "geology_code_unknown": 0, "label": 0 }, "geometry": { "type": "Point", "coordinates": [ 17.75, -22.75 ] } },
    { "type": "Feature", "properties": { "elevation": 1080, "slope": 26, "aspect": 185, "geology_code_1": 0, "geology_code_2": 0, "geology_code_3": 0, "geology_code_4": 1, "geology_code_5": 0, "geology_code_6": 0, "geology_code_7": 0, "geology_code_8": 0, "geology_code_9": 0, "geology_code_10": 0, "geology_code_11": 0, "geology_code_12": 0, "geology_code_13": 0, "geology_code_14": 0, "geology_code_15": 0, "geology_code_16": 0, "geology_code_17": 0, "geology_code_18": 0, "geology_code_19": 0, "geology_code_20": 0, "geology_code_21": 0, "geology_code_22": 0, "geology_code_23": 0, "geology_code_24": 0, "geology_code_25": 0, "geology_code_26": 0, "geology_code_27": 0, "geology_code_28": 0, "geology_code_unknown": 0, "label": 0 }, "geometry": { "type": "Point", "coordinates": [ 17.85, -22.85 ] } },
    { "type": "Feature", "properties": { "elevation": 1420, "slope": 9, "aspect": 275, "geology_code_1": 0, "geology_code_2": 0, "geology_code_3": 0, "geology_code_4": 0, "geology_code_5": 1, "geology_code_6": 0, "geology_code_7": 0, "geology_code_8": 0, "geology_code_9": 0, "geology_code_10": 0, "geology_code_11": 0, "geology_code_12": 0, "geology_code_13": 0, "geology_code_14": 0, "geology_code_15": 0, "geology_code_16": 0, "geology_code_17": 0, "geology_code_18": 0, "geology_code_19": 0, "geology_code_20": 0, "geology_code_21": 0, "geology_code_22": 0, "geology_code_23": 0, "geology_code_24": 0, "geology_code_25": 0, "geology_code_26": 0, "geology_code_27": 0, "geology_code_28": 0, "geology_code_unknown": 0, "label": 1 }, "geometry": { "type": "Point", "coordinates": [ 17.95, -22.95 ] } },
    { "type": "Feature", "properties": { "elevation": 1280, "slope": 19, "aspect": 320, "geology_code_1": 0, "geology_code_2": 0, "geology_code_3": 0, "geology_code_4": 0, "geology_code_5": 0, "geology_code_6": 1, "geology_code_7": 0, "geology_code_8": 0, "geology_code_9": 0, "geology_code_10": 0, "geology_code_11": 0, "geology_code_12": 0, "geology_code_13": 0, "geology_code_14": 0, "geology_code_15": 0, "geology_code_16": 0, "geology_code_17": 0, "geology_code_18": 0, "geology_code_19": 0, "geology_code_20": 0, "geology_code_21": 0, "geology_code_22": 0, "geology_code_23": 0, "geology_code_24": 0, "geology_code_25": 0, "geology_code_26": 0, "geology_code_27": 0, "geology_code_28": 0, "geology_code_unknown": 0, "label": 0 }, "geometry": { "type": "Point", "coordinates": [ 18.05, -23.05 ] } },
    { "type": "Feature", "properties": { "elevation": 1130, "slope": 23, "aspect": 5, "geology_code_1": 0, "geology_code_2": 0, "geology_code_3": 0, "geology_code_4": 0, "geology_code_5": 0, "geology_code_6": 0, "geology_code_7": 1, "geology_code_8": 0, "geology_code_9": 0, "geology_code_10": 0, "geology_code_11": 0, "geology_code_12": 0, "geology_code_13": 0, "geology_code_14": 0, "geology_code_15": 0, "geology_code_16": 0, "geology_code_17": 0, "geology_code_18": 0, "geology_code_19": 0, "geology_code_20": 0, "geology_code_21": 0, "geology_code_22": 0, "geology_code_23": 0, "geology_code_24": 0, "geology_code_25": 0, "geology_code_26": 0, "geology_code_27": 0, "geology_code_28": 0, "geology_code_unknown": 0, "label": 1 }, "geometry": { "type": "Point", "coordinates": [ 18.15, -23.15 ] } },
    { "type": "Feature", "properties": { "elevation": 1380, "slope": 13, "aspect": 65, "geology_code_1": 0, "geology_code_2": 0, "geology_code_3": 0, "geology_code_4": 0, "geology_code_5": 0, "geology_code_6": 0, "geology_code_7": 0, "geology_code_8": 1, "geology_code_9": 0, "geology_code_10": 0, "geology_code_11": 0, "geology_code_12": 0, "geology_code_13": 0, "geology_code_14": 0, "geology_code_15": 0, "geology_code_16": 0, "geology_code_17": 0, "geology_code_18": 0, "geology_code_19": 0, "geology_code_20": 0, "geology_code_21": 0, "geology_code_22": 0, "geology_code_23": 0, "geology_code_24": 0, "geology_code_25": 0, "geology_code_26": 0, "geology_code_27": 0, "geology_code_28": 0, "geology_code_unknown": 0, "label": 0 }, "geometry": { "type": "Point", "coordinates": [ 18.25, -23.25 ] } },
    { "type": "Feature", "properties": { "elevation": 1030, "slope": 29, "aspect": 155, "geology_code_1": 0, "geology_code_2": 0, "geology_code_3": 0, "geology_code_4": 0, "geology_code_5": 0, "geology_code_6": 0, "geology_code_7": 0, "geology_code_8": 0, "geology_code_9": 1, "geology_code_10": 0, "geology_code_11": 0, "geology_code_12": 0, "geology_code_13": 0, "geology_code_14": 0, "geology_code_15": 0, "geology_code_16": 0, "geology_code_17": 0, "geology_code_18": 0, "geology_code_19": 0, "geology_code_20": 0, "geology_code_21": 0, "geology_code_22": 0, "geology_code_23": 0, "geology_code_24": 0, "geology_code_25": 0, "geology_code_26": 0, "geology_code_27": 0, "geology_code_28": 0, "geology_code_unknown": 0, "label": 1 }, "geometry": { "type": "Point", "coordinates": [ 18.35, -23.35 ] } },
    { "type": "Feature", "properties": { "elevation": 1480, "slope": 7, "aspect": 215, "geology_code_1": 0, "geology_code_2": 0, "geology_code_3": 0, "geology_code_4": 0, "geology_code_5": 0, "geology_code_6": 0, "geology_code_7": 0, "geology_code_8": 0, "geology_code_9": 0, "geology_code_10": 1, "geology_code_11": 0, "geology_code_12": 0, "geology_code_13": 0, "geology_code_14": 0, "geology_code_15": 0, "geology_code_16": 0, "geology_code_17": 0, "geology_code_18": 0, "geology_code_19": 0, "geology_code_20": 0, "geology_code_21": 0, "geology_code_22": 0, "geology_code_23": 0, "geology_code_24": 0, "geology_code_25": 0, "geology_code_26": 0, "geology_code_27": 0, "geology_code_28": 0, "geology_code_unknown": 0, "label": 0 }, "geometry": { "type": "Point", "coordinates": [ 18.45, -23.45 ] } }
  ]
}
